{
  "norad_id": 55669,
  "name": "STARLINK-5459",
  "history": [
    {
      "epoch": "2026-03-28T18:41:18.037536Z",
      "apogee_km": 574.634759185682,
      "perigee_km": 569.4717408565512,
      "latitude_deg": 4.105954116302617e-05,
      "longitude_deg": 9.81921957804578,
      "height_km": 574.6699254433973,
      "semi_major_axis_km": 6950.190250021116,
      "eccentricity": 0.00037143,
      "inclination_deg": 69.9996,
      "raan_deg": 116.3386,
      "arg_perigee_deg": 265.8112,
      "mean_anomaly_deg": 94.2623,
      "mean_motion_rev_day": 14.98330854
    },
    {
      "epoch": "2026-03-29T04:18:06.380928Z",
      "apogee_km": 574.0178174698294,
      "perigee_km": 569.8338796349999,
      "latitude_deg": -1.5431682672113865e-05,
      "longitude_deg": -135.78814115531398,
      "height_km": 574.3882457138412,
      "semi_major_axis_km": 6950.062848552414,
      "eccentricity": 0.000301,
      "inclination_deg": 69.9986,
      "raan_deg": 115.3275,
      "arg_perigee_deg": 269.0419,
      "mean_anomaly_deg": 91.0395,
      "mean_motion_rev_day": 14.98372053
    }
  ]
}